ONEWEB-0716             
1 55177U 23004AP  24215.84818705  .00000079  00000+0  17157-3 0  9998
2 55177  87.9191 141.9621 0002056  73.7997 286.3361 13.17650049 77594
ONEWEB-0717             
1 55178U 23004AQ  24215.83041933  .00000044  00000+0  80275-4 0  9993
2 55178  87.9189 141.9290 0002701  95.1439 265.0001 13.17649717 77641
ONEWEB-0719             
1 55179U 23004AR  24216.22140579  .00000072  00000+0  15109-3 0  9998
2 55179  87.9188 141.8377 0002299  72.8687 287.2697 13.17651160 77647
ONEWEB-0530             
1 55796U 23029A   24215.61268885  .00000065  00000+0  12760-3 0  9995
2 55796  87.9182  50.4623 0002430  90.7562 269.3850 13.20773369 70918
ONEWEB-0534             
1 55797U 23029B   24215.60005724  .00000008  00000+0 -11780-4 0  9996
2 55797  87.9184  50.4719 0001830  81.9694 278.1647 13.20768169 71609
ONEWEB-0556             
1 55798U 23029C   24215.90940798 -.00000008  00000+0 -50400-4 0  9992
2 55798  87.9184  50.4034 0002521  72.5364 287.6045 13.20772220 70955
ONEWEB-0562             
1 55799U 23029D   24216.50283171  .00000143  00000+0  32027-3 0  9997
2 55799  87.9183  50.2759 0002918  83.8715 276.2750 13.20772176 71714
ONEWEB-0563             
1 55800U 23029E   24215.58742745  .00000047  00000+0  82456-4 0  9999
2 55800  87.9184  50.4736 0001755  78.2108 281.9222 13.20770492 71588
